{"type": "FeatureCollection", "features": [ {"type": "Feature", "properties": {"norad_id": 44506, "name": "GPS BIII-2  (PRN 18)", "group": "gnss", "lat": -29.627422279333288, "lon": -178.62264347085465, "alt_km": 20040.18706976972, "timestamp": "2025-12-12T11:38:31.655040+00:00", "meta": {"OBJECT_NAME": "GPS BIII-2  (PRN 18)", "OBJECT_ID": "2019-056A", "EPOCH": "2025-12-11T10:12:28.532736", "MEAN_MOTION": 2.00566237, "ECCENTRICITY": 0.00577517, "INCLINATION": 55.7218, "RA_OF_ASC_NODE": 338.6041, "ARG_OF_PERICENTER": 198.4885, "MEAN_ANOMALY": 332.8185, "EPHEMERIS_TYPE": 0, "CLASSIFICATION_TYPE": "U", "NORAD_CAT_ID": 44506, "ELEMENT_SET_NO": 999, "REV_AT_EPOCH": 4630, "BSTAR": 0, "MEAN_MOTION_DOT": -8.7e-07, "MEAN_MOTION_DDOT": 0}, "tle": {"line1": "1 44506U 19056A   25345.42533024 -.00000087  00000+0  00000+0 0  9996", "line2": "2 44506  55.7218 338.6041 0057751 198.4885 332.8185  2.00566237 46306"}}, "geometry": {"type": "Point", "coordinates": [-178.62264347085465, -29.627422279333288]}}, {"type": "Feature", "properties": {"norad_id": 44542, "name": "BEIDOU-3 M24 (C46)", "group": "gnss", "lat": 49.45211135861576, "lon": -114.09668906881065, "alt_km": 21503.49889891439, "timestamp": "2025-12-12T11:38:31.655051+00:00", "meta": {"OBJECT_NAME": "BEIDOU-3 M24 (C46)", "OBJECT_ID": "2019-061A", "EPOCH": "2025-12-11T20:16:59.930112", "MEAN_MOTION": 1.86229199, "ECCENTRICITY": 0.0009542, "INCLINATION": 54.4002, "RA_OF_ASC_NODE": 189.0463, "ARG_OF_PERICENTER": 24.13, "MEAN_ANOMALY": 335.9744, "EPHEMERIS_TYPE": 0, "CLASSIFICATION_TYPE": "U", "NORAD_CAT_ID": 44542, "ELEMENT_SET_NO": 999, "REV_AT_EPOCH": 4230, "BSTAR": 0, "MEAN_MOTION_DOT": 7.3e-07, "MEAN_MOTION_DDOT": 0}, "tle": {"line1": "1 44542U 19061A   25345.84513808  .00000073  00000+0  00000+0 0  9990", "line2": "2 44542  54.4002 189.0463 0009542  24.1300 335.9744  1.86229199 42308"}}, "geometry": {"type": "Point", "coordinates": [-114.09668906881065, 49.45211135861576]}}, {"type": "Feature", "properties": {"norad_id": 44543, "name": "BEIDOU-3 M23 (C45)", "group": "gnss", "lat": -14.693908453489431, "lon": 178.169263555041, "alt_km": 21517.74643422667, "timestamp": "2025-12-12T11:38:31.655062+00:00", "meta": {"OBJECT_NAME": "BEIDOU-3 M23 (C45)", "OBJECT_ID": "2019-061B", "EPOCH": "2025-12-08T18:00:07.463232", "MEAN_MOTION": 1.8622754, "ECCENTRICITY": 0.00060873, "INCLINATION": 54.3989, "RA_OF_ASC_NODE": 189.119, "ARG_OF_PERICENTER": 23.0878, "MEAN_ANOMALY": 334.736, "EPHEMERIS_TYPE": 0, "CLASSIFICATION_TYPE": "U", "NORAD_CAT_ID": 44543, "ELEMENT_SET_NO": 999, "REV_AT_EPOCH": 4224, "BSTAR": 0, "MEAN_MOTION_DOT": 5e-07, "MEAN_MOTION_DDOT": 0}, "tle": {"line1": "1 44543U 19061B   25342.75008638  .00000050  00000+0  00000+0 0  9993", "line2": "2 44543  54.3989 189.1190 0006087  23.0878 334.7360  1.86227540 42241"}}, "geometry": {"type": "Point", "coordinates": [178.169263555041, -14.693908453489431]}}, {"type": "Feature", "properties": {"norad_id": 44624, "name": "EUTELSAT 5 WEST B (EGNOS/PRN 121)", "group": "gnss", "lat": -0.08019860159339282, "lon": -108.9515333101482, "alt_km": 35772.07852620776, "timestamp": "2025-12-12T11:38:31.655074+00:00", "meta": {"OBJECT_NAME": "EUTELSAT 5 WEST B (EGNOS/PRN 121)", "OBJECT_ID": "2019-067A", "EPOCH": "2025-12-12T03:11:01.220064", "MEAN_MOTION": 1.00271785, "ECCENTRICITY": 0.0003369, "INCLINATION": 0.0623, "RA_OF_ASC_NODE": 347.8721, "ARG_OF_PERICENTER": 274.027, "MEAN_ANOMALY": 221.9383, "EPHEMERIS_TYPE": 0, "CLASSIFICATION_TYPE": "U", "NORAD_CAT_ID": 44624, "ELEMENT_SET_NO": 999, "REV_AT_EPOCH": 2256, "BSTAR": 0, "MEAN_MOTION_DOT": -3.3e-07, "MEAN_MOTION_DDOT": 0}, "tle": {"line1": "1 44624U 19067A   25346.13265301 -.00000033  00000+0  00000+0 0  9999", "line2": "2 44624   0.0623 347.8721 0003369 274.0270 221.9383  1.00271785 22562"}}, "geometry": {"type": "Point", "coordinates": [-108.9515333101482, -0.08019860159339282]}}, {"type": "Feature", "properties": {"norad_id": 44709, "name": "BEIDOU-3 IGSO-3 (C40)", "group": "gnss", "lat": 54.95394580716675, "lon": 5.885909665224692, "alt_km": 35838.18510230893, "timestamp": "2025-12-12T11:38:31.655085+00:00", "meta": {"OBJECT_NAME": "BEIDOU-3 IGSO-3 (C40)", "OBJECT_ID": "2019-073A", "EPOCH": "2025-11-20T07:11:22.740000", "MEAN_MOTION": 1.00250097, "ECCENTRICITY": 0.0044538, "INCLINATION": 55.163, "RA_OF_ASC_NODE": 283.159, "ARG_OF_PERICENTER": 191.5856, "MEAN_ANOMALY": 168.2409, "EPHEMERIS_TYPE": 0, "CLASSIFICATION_TYPE": "U", "NORAD_CAT_ID": 44709, "ELEMENT_SET_NO": 999, "REV_AT_EPOCH": 2236, "BSTAR": 0, "MEAN_MOTION_DOT": -2.06e-06, "MEAN_MOTION_DDOT": 0}, "tle": {"line1": "1 44709U 19073A   25324.29956875 -.00000206  00000+0  00000+0 0  9998", "line2": "2 44709  55.1630 283.1590 0044538 191.5856 168.2409  1.00250097 22360"}}, "geometry": {"type": "Point", "coordinates": [5.885909665224692, 54.95394580716675]}}, {"type": "Feature", "properties": {"norad_id": 44793, "name": "BEIDOU-3 M22 (C44)", "group": "gnss", "lat": 2.92906320193265, "lon": 124.2550545361748, "alt_km": 21541.963289751096, "timestamp": "2025-12-12T11:38:31.655100+00:00", "meta": {"OBJECT_NAME": "BEIDOU-3 M22 (C44)", "OBJECT_ID": "2019-078A", "EPOCH": "2025-12-10T01:47:05.181792", "MEAN_MOTION": 1.86231719, "ECCENTRICITY": 0.0005679, "INCLINATION": 54.1107, "RA_OF_ASC_NODE": 306.4794, "ARG_OF_PERICENTER": 23.2059, "MEAN_ANOMALY": 336.8105, "EPHEMERIS_TYPE": 0, "CLASSIFICATION_TYPE": "U", "NORAD_CAT_ID": 44793, "ELEMENT_SET_NO": 999, "REV_AT_EPOCH": 4112, "BSTAR": 0, "MEAN_MOTION_DOT": -8e-07, "MEAN_MOTION_DDOT": 0}, "tle": {"line1": "1 44793U 19078A   25344.07436553 -.00000080  00000+0  00000+0 0  9990", "line2": "2 44793  54.1107 306.4794 0005679  23.2059 336.8105  1.86231719 41120"}}, "geometry": {"type": "Point", "coordinates": [124.2550545361748, 2.92906320193265]}}, {"type": "Feature", "properties": {"norad_id": 44794, "name": "BEIDOU-3 M21 (C43)", "group": "gnss", "lat": 53.659887363006526, "lon": 26.273716409483185, "alt_km": 21519.164446368086, "timestamp": "2025-12-12T11:38:31.655111+00:00", "meta": {"OBJECT_NAME": "BEIDOU-3 M21 (C43)", "OBJECT_ID": "2019-078B", "EPOCH": "2025-12-09T03:18:47.736000", "MEAN_MOTION": 1.86227438, "ECCENTRICITY": 0.00038519, "INCLINATION": 54.0853, "RA_OF_ASC_NODE": 306.4778, "ARG_OF_PERICENTER": 10.0441, "MEAN_ANOMALY": 349.953, "EPHEMERIS_TYPE": 0, "CLASSIFICATION_TYPE": "U", "NORAD_CAT_ID": 44794, "ELEMENT_SET_NO": 999, "REV_AT_EPOCH": 4111, "BSTAR": 0, "MEAN_MOTION_DOT": -7.6e-07, "MEAN_MOTION_DDOT": 0}, "tle": {"line1": "1 44794U 19078B   25343.13805250 -.00000076  00000+0  00000+0 0  9996", "line2": "2 44794  54.0853 306.4778 0003851  10.0441 349.9530  1.86227438 41118"}}, "geometry": {"type": "Point", "coordinates": [26.273716409483185, 53.659887363006526]}}, {"type": "Feature", "properties": {"norad_id": 44850, "name": "COSMOS 2544 (759)", "group": "gnss", "lat": 9.146068915058777, "lon": -104.24093339098475, "alt_km": 19122.72979374675, "timestamp": "2025-12-12T11:38:31.655124+00:00", "meta": {"OBJECT_NAME": "COSMOS 2544 (759)", "OBJECT_ID": "2019-088A", "EPOCH": "2025-12-11T19:03:21.616416", "MEAN_MOTION": 2.13101808, "ECCENTRICITY": 0.00136914, "INCLINATION": 65.4596, "RA_OF_ASC_NODE": 79.99, "ARG_OF_PERICENTER": 249.2614, "MEAN_ANOMALY": 110.6076, "EPHEMERIS_TYPE": 0, "CLASSIFICATION_TYPE": "U", "NORAD_CAT_ID": 44850, "ELEMENT_SET_NO": 999, "REV_AT_EPOCH": 4672, "BSTAR": 0, "MEAN_MOTION_DOT": -3.2e-07, "MEAN_MOTION_DDOT": 0}, "tle": {"line1": "1 44850U 19088A   25345.79400019 -.00000032  00000+0  00000+0 0  9990", "line2": "2 44850  65.4596  79.9900 0013691 249.2614 110.6076  2.13101808 46724"}}, "geometry": {"type": "Point", "coordinates": [-104.24093339098475, 9.146068915058777]}}, {"type": "Feature", "properties": {"norad_id": 44864, "name": "BEIDOU-3 M19 (C41)", "group": "gnss", "lat": -55.19265933265538, "lon": -3.8211114565803337, "alt_km": 21484.358012278022, "timestamp": "2025-12-12T11:38:31.655184+00:00", "meta": {"OBJECT_NAME": "BEIDOU-3 M19 (C41)", "OBJECT_ID": "2019-090A", "EPOCH": "2025-12-10T23:47:39.658272", "MEAN_MOTION": 1.86231263, "ECCENTRICITY": 0.0017877, "INCLINATION": 56.392, "RA_OF_ASC_NODE": 69.0187, "ARG_OF_PERICENTER": 285.2046, "MEAN_ANOMALY": 73.1126, "EPHEMERIS_TYPE": 0, "CLASSIFICATION_TYPE": "U", "NORAD_CAT_ID": 44864, "ELEMENT_SET_NO": 999, "REV_AT_EPOCH": 4072, "BSTAR": 0, "MEAN_MOTION_DOT": -6e-07, "MEAN_MOTION_DDOT": 0}, "tle": {"line1": "1 44864U 19090A   25344.99143123 -.00000060  00000+0  00000+0 0  9990", "line2": "2 44864  56.3920  69.0187 0017877 285.2046  73.1126  1.86231263 40726"}}, "geometry": {"type": "Point", "coordinates": [-3.8211114565803337, -55.19265933265538]}}, {"type": "Feature", "properties": {"norad_id": 44865, "name": "BEIDOU-3 M20 (C42)", "group": "gnss", "lat": 7.899127582246461, "lon": 74.29711292072705, "alt_km": 21514.050832771976, "timestamp": "2025-12-12T11:38:31.655198+00:00", "meta": {"OBJECT_NAME": "BEIDOU-3 M20 (C42)", "OBJECT_ID": "2019-090B", "EPOCH": "2025-12-10T20:36:05.507712", "MEAN_MOTION": 1.86231317, "ECCENTRICITY": 0.0014897, "INCLINATION": 56.3937, "RA_OF_ASC_NODE": 69.0576, "ARG_OF_PERICENTER": 298.003, "MEAN_ANOMALY": 60.7372, "EPHEMERIS_TYPE": 0, "CLASSIFICATION_TYPE": "U", "NORAD_CAT_ID": 44865, "ELEMENT_SET_NO": 999, "REV_AT_EPOCH": 4070, "BSTAR": 0, "MEAN_MOTION_DOT": -5.8e-07, "MEAN_MOTION_DDOT": 0}, "tle": {"line1": "1 44865U 19090B   25344.85839708 -.00000058  00000+0  00000+0 0  9994", "line2": "2 44865  56.3937  69.0576 0014897 298.0030  60.7372  1.86231317 40704"}}, "geometry": {"type": "Point", "coordinates": [74.29711292072705, 7.899127582246461]}}]}